{"fetched_at":"2026-03-30T13:17:50Z","count":15418,"tles":[{"name":"STARLINK-35598","line1":"1 66509U 25263AA  26087.71262418  .00025967  00000+0  94972-3 0  9990","line2":"2 66509  42.9972 243.6560 0001173 285.0170  75.0551 15.27583277 21803","category":"Starlink"}]}